#cP2020 04 05  0  0  0.00000000      96     U IGS14 FIT  EMR
## 2100 000000.00000000   900.00000000 58944 0.0000000000000                    
+   32   G01G02G03G04G05G06G07G08G09G10G11G12G13G14G15G16G17
+        G18G19G20G21G22G23G24G25G26G27G28G29G30G31G32 00 00
+         00 00 00 00 00 00 00 00 00 00 00 00 00 00 00 00 00
+         00 00 00 00 00 00 00 00 00 00 00 00 00 00 00 00 00
+         00 00 00 00 00 00 00 00 00 00 00 00 00 00 00 00 00
++         5  5  5  5  5  5  5  5  5  5  5  5  5  5  5  5  5                    
++         5  5  5  5  5  5  5  5  5  5  5  5  5  5  5  0  0                    
++         0  0  0  0  0  0  0  0  0  0  0  0  0  0  0  0  0                    
++         0  0  0  0  0  0  0  0  0  0  0  0  0  0  0  0  0                    
++         0  0  0  0  0  0  0  0  0  0  0  0  0  0  0  0  0                    
%c G  cc GPS ccc cccc cccc cccc cccc ccccc ccccc ccccc ccccc
%c cc cc ccc ccc cccc cccc cccc cccc ccccc ccccc ccccc ccccc                    
%f  1.2500000  1.025000000  0.00000000000  0.000000000000000
%f  0.0000000  0.000000000  0.00000000000  0.000000000000000                    
%i    0    0    0    0      0      0      0      0         0                    
%i    0    0    0    0      0      0      0      0         0                    
/* CCCCCCCCCCCCCCCCCCCCCCCCCCCCCCCCCCCCCCCCCCCCCCCCCCCCCCCCC                    
/* CCCCCCCCCCCCCCCCCCCCCCCCCCCCCCCCCCCCCCCCCCCCCCCCCCCCCCCCC                    
/* CCCCCCCCCCCCCCCCCCCCCCCCCCCCCCCCCCCCCCCCCCCCCCCCCCCCCCCCC                    
/* PCV:IGS14_1935 OL/AL:FES2004  NONE     YN ORB:CoN CLK:CoN                    
*  2020  4  5 21 45  0.00000000                                                 
PG01  14444.397638  -2772.267404  21901.748024   -349.423707                    
PG02 -13516.934049 -19477.004285 -11397.678564   -434.680722                    
PG03  22279.398605 -11241.605773   8886.801231   -137.678412                    
PG04  22550.679523  -1869.813730 -13920.716606    -72.409725                    
PG05 -14560.627706  -7102.569887 -21210.237599    -10.552797                    
PG06  -7047.840352 -25406.828950  -2951.997993   -246.849569                    
PG07   7067.732685 -20303.836154 -14976.221702   -252.265215                    
PG08  25809.031016   5874.282655   3516.932870    -29.850121                    
PG09  13938.582590 -10474.724410 -20093.515209   -191.989328                    
PG10  -6229.694943  20209.412028  16010.450778   -301.123195                    
PG11  20021.128930   6024.190525  15719.216406   -313.670992                    
PG12 -22753.458662   8495.806670  10315.006393    132.358288                    
PG13 -22800.109273 -13429.312132  -2910.019594     -0.395863                    
PG14  13296.072079  17500.001312  15385.579484    -21.724091                    
PG15 -26274.195305  -3312.152489   3573.384417   -240.193807                    
PG16  14530.737425   7181.528048 -21344.090622   -143.453118                    
PG17  -3456.193285 -16463.772736  20988.036015    243.840519                    
PG18 -10016.917415  16554.650666 -18196.922201    145.547627                    
PG19 -11678.781478 -17268.153747  16165.254125   -176.211219                    
PG20 -13916.575970  21820.310822   5366.380803    527.633352                    
PG21  -4515.094328  21740.643597 -13982.150209    -18.265905                    
PG22  20792.578168  -4160.348548  16135.439918   -785.304660                    
PG23  21166.553520  -4858.867296 -15213.411836   -124.564704                    
PG24 -15772.213050   1170.143530  21166.874628    -11.506053                    
PG25 -20203.246027  16987.746436    620.414353     -5.192150                    
PG26   5651.775890  15325.557854 -20938.947718    181.625940                    
PG27  22480.569846  12700.675117  -7076.340380   -259.005237                    
PG28   6459.274900 -19339.375469  17682.219477    727.381132                    
PG29 -16404.213660   7207.737249 -19650.528671    -74.239646                    
PG30    -81.842270 -25869.537083  -5476.537497   -192.042627                    
PG31   7854.372061  24577.530291  -5209.508980    -34.338744                    
PG32   5200.293958  16679.222895  20121.884206    252.885153                    
*  2020  4  5 22  0  0.00000000                                                 
PG01  14997.289687   -296.710403  21733.985222   -349.433877                    
PG02 -13647.393882 -20737.694764  -8886.994501   -434.686826                    
PG03  21573.729376 -10279.273667  11424.751670   -137.688016                    
PG04  23867.041611  -1202.286812 -11612.256999    -72.414448                    
PG05 -12862.109580  -8832.753056 -21638.987273    -10.553392                    
PG06  -6887.136610 -25627.301176    -64.473912   -246.856691                    
PG07   7686.023539 -18502.019270 -16892.458202   -252.272454                    
PG08  25977.190235   6139.811506    670.738247    -29.851528                    
PG09  16038.108834  -9743.089017 -18855.761503   -191.996371                    
PG10  -7604.315288  21237.920079  13918.423465   -301.134218                    
PG11  20926.028647   7597.478430  13772.070673   -313.661460                    
PG12 -21817.821124   7494.570631  12778.809513    132.354158                    
PG13 -22272.690609 -13434.471341  -5719.479498     -0.393059                    
PG14  11561.774791  16975.047889  17282.871843    -21.721701                    
PG15 -26490.754059  -3677.246545    819.685076   -240.191400                    
PG16  12634.929405   8685.196779 -21949.459878   -143.457176                    
PG17  -1231.937532 -15690.658853  21824.862456    243.845831                    
PG18 -10572.018686  14461.522439 -19613.909512    145.560135                    
PG19  -9785.380464 -16607.725014  17978.851270   -176.206753                    
PG20 -14481.629432  21963.206580   2604.478482    527.633271                    
PG21  -5239.978738  20042.859251 -15984.686784    -18.261377                    
PG22  19657.851270  -2598.379261  17831.276735   -785.304202                    
PG23  22713.088383  -4205.227126 -13118.892330   -124.561596                    
PG24 -16421.706090  -1183.020317  20703.990279    -11.505493                    
PG25 -20188.928926  16616.717389   3489.795846     -5.190049                    
PG26   3916.824485  16912.232609 -20075.369867    181.632590                    
PG27  21539.011391  12583.655504  -9731.212629   -259.014617                    
PG28   7959.035895 -20353.684242  15777.258030    727.378604                    
PG29 -18377.373981   6352.240810 -18139.947360    -74.247766                    
PG30    380.200000 -25153.663794  -8152.073694   -192.050346                    
PG31   7652.246125  25063.126419  -2377.037925    -34.341445                    
PG32   2938.502934  16085.696680  21032.313508    252.892808                    
*  2020  4  5 22 15  0.00000000                                                 
PG01  15672.217898   2102.105725  21185.760800   -349.444047                    
PG02 -13742.808286 -21707.597489  -6219.943966   -434.692644                    
PG03  20728.116722  -9080.630847  13764.469227   -137.697509                    
PG04  24953.630676   -677.163781  -9104.147597    -72.419101                    
PG05 -11234.683002 -10669.346503 -21700.284735    -10.554019                    
PG06  -6645.919944 -25541.633909   2824.167875   -246.863863                    
PG07   8446.993829 -16538.588010 -18506.093023   -252.280473                    
PG08  25846.130423   6325.174601  -2186.816913    -29.853041                    
PG09  18018.398720  -9154.441537 -17295.078338   -192.003440                    
PG10  -8751.915532  22155.393759  11585.424150   -301.145330                    
PG11  21736.962739   8953.990198  11577.393758   -313.651529                    
PG12 -20738.882207   6261.264819  15017.949304    132.350415                    
PG13 -21455.563692 -13356.157110  -8431.302390     -0.390205                    
PG14   9617.277907  16481.547534  18892.020874    -21.719422                    
PG15 -26419.096275  -3986.677668  -1947.843886   -240.189047                    
PG16  10787.672346  10326.140536 -22186.104341   -143.461003                    
PG17   1102.023103 -15024.637553  22300.490684    243.851514                    
PG18 -11272.520629  12264.064332 -20693.508414    145.572724                    
PG19  -7677.557342 -15989.000497  19475.944149   -176.202247                    
PG20 -14852.108317  21878.252591   -202.888901    527.633118                    
PG21  -6127.212321  18176.176490 -17699.528321    -18.256586                    
PG22  18490.485032   -852.032674  19223.944334   -785.303741                    
PG23  24043.256595  -3686.285508 -10798.670896   -124.559154                    
PG24 -17157.787911  -3429.612475  19880.482637    -11.506673                    
PG25 -19970.657867  16009.640244   6297.851887     -5.187939                    
PG26   2339.566542  18497.318831 -18865.576534    181.639219                    
PG27  20311.496420  12451.690793 -12222.616063   -259.023998                    
PG28   9232.779858 -21302.267422  13612.514307    727.375812                    
PG29 -20215.464626   5665.508311 -16318.327959    -74.256121                    
PG30    948.638560 -24174.570833 -10685.460321   -192.057998                    
PG31   7391.158671  25242.810887    497.500472    -34.343646                    
PG32    567.691570  15591.228120  21584.113773    252.900597                    
EOF                                                                             
